CCSDS_OMM_VERS = 2.0
CREATION_DATE  = 
ORIGINATOR     = 

OBJECT_NAME    = ATLAS CENTAUR 2
OBJECT_ID      = 1963-047A
CENTER_NAME    = EARTH
REF_FRAME      = TEME
TIME_SYSTEM    = UTC
MEAN_ELEMENT_THEORY = SGP/SGP4

EPOCH          = 2026-03-08T09:59:28.009824
MEAN_MOTION    = 14.12063774
ECCENTRICITY   = .0547733
INCLINATION    = 30.3512
RA_OF_ASC_NODE = 202.7588
ARG_OF_PERICENTER = 69.0639
MEAN_ANOMALY   = 296.7688

EPHEMERIS_TYPE = 0
CLASSIFICATION_TYPE = U
NORAD_CAT_ID   = 694
ELEMENT_SET_NO = 999
REV_AT_EPOCH   = 13144
BSTAR          = .24161E-3
MEAN_MOTION_DOT = .2054E-4
MEAN_MOTION_DDOT = 0

CCSDS_OMM_VERS = 2.0
CREATION_DATE  = 
ORIGINATOR     = 

OBJECT_NAME    = THOR AGENA D R/B
OBJECT_ID      = 1964-002A
CENTER_NAME    = EARTH
REF_FRAME      = TEME
TIME_SYSTEM    = UTC
MEAN_ELEMENT_THEORY = SGP/SGP4

EPOCH          = 2026-03-08T11:24:48.327840
MEAN_MOTION    = 14.34019404
ECCENTRICITY   = .0031938
INCLINATION    = 99.1227
RA_OF_ASC_NODE = 80.7469
ARG_OF_PERICENTER = 261.7569
MEAN_ANOMALY   = 97.9992

EPHEMERIS_TYPE = 0
CLASSIFICATION_TYPE = U
NORAD_CAT_ID   = 733
ELEMENT_SET_NO = 999
REV_AT_EPOCH   = 23812
BSTAR          = .12745E-3
MEAN_MOTION_DOT = .309E-5
MEAN_MOTION_DDOT = 0

CCSDS_OMM_VERS = 2.0
CREATION_DATE  = 
ORIGINATOR     = 

OBJECT_NAME    = SL-3 R/B
OBJECT_ID      = 1964-053B
CENTER_NAME    = EARTH
REF_FRAME      = TEME
TIME_SYSTEM    = UTC
MEAN_ELEMENT_THEORY = SGP/SGP4

EPOCH          = 2026-03-08T04:28:20.861184
MEAN_MOTION    = 14.61367221
ECCENTRICITY   = .0079715
INCLINATION    = 65.0789
RA_OF_ASC_NODE = 335.6445
ARG_OF_PERICENTER = 292.7003
MEAN_ANOMALY   = 66.5683

EPHEMERIS_TYPE = 0
CLASSIFICATION_TYPE = U
NORAD_CAT_ID   = 877
ELEMENT_SET_NO = 999
REV_AT_EPOCH   = 26657
BSTAR          = .11484E-3
MEAN_MOTION_DOT = .469E-5
MEAN_MOTION_DDOT = 0

CCSDS_OMM_VERS = 2.0
CREATION_DATE  = 
ORIGINATOR     = 

OBJECT_NAME    = SL-8 R/B
OBJECT_ID      = 1967-045B
CENTER_NAME    = EARTH
REF_FRAME      = TEME
TIME_SYSTEM    = UTC
MEAN_ELEMENT_THEORY = SGP/SGP4

EPOCH          = 2026-03-08T06:14:40.344288
MEAN_MOTION    = 14.45621699
ECCENTRICITY   = .0064148
INCLINATION    = 74.0140
RA_OF_ASC_NODE = 350.7585
ARG_OF_PERICENTER = 357.3686
MEAN_ANOMALY   = 2.7124

EPHEMERIS_TYPE = 0
CLASSIFICATION_TYPE = U
NORAD_CAT_ID   = 2802
ELEMENT_SET_NO = 999
REV_AT_EPOCH   = 8881
BSTAR          = .17906E-3
MEAN_MOTION_DOT = .621E-5
MEAN_MOTION_DDOT = 0

CCSDS_OMM_VERS = 2.0
CREATION_DATE  = 
ORIGINATOR     = 

OBJECT_NAME    = SL-8 R/B
OBJECT_ID      = 1968-040B
CENTER_NAME    = EARTH
REF_FRAME      = TEME
TIME_SYSTEM    = UTC
MEAN_ELEMENT_THEORY = SGP/SGP4

EPOCH          = 2026-03-08T09:05:16.593792
MEAN_MOTION    = 15.03250431
ECCENTRICITY   = .0023866
INCLINATION    = 74.0324
RA_OF_ASC_NODE = 316.3734
ARG_OF_PERICENTER = 140.7608
MEAN_ANOMALY   = 219.5317

EPHEMERIS_TYPE = 0
CLASSIFICATION_TYPE = U
NORAD_CAT_ID   = 3230
ELEMENT_SET_NO = 999
REV_AT_EPOCH   = 8981
BSTAR          = .3752E-3
MEAN_MOTION_DOT = .5075E-4
MEAN_MOTION_DDOT = 0

CCSDS_OMM_VERS = 2.0
CREATION_DATE  = 
ORIGINATOR     = 

OBJECT_NAME    = OAO 2
OBJECT_ID      = 1968-110A
CENTER_NAME    = EARTH
REF_FRAME      = TEME
TIME_SYSTEM    = UTC
MEAN_ELEMENT_THEORY = SGP/SGP4

EPOCH          = 2026-03-07T22:05:23.742816
MEAN_MOTION    = 14.47307064
ECCENTRICITY   = .00056639
INCLINATION    = 34.9929
RA_OF_ASC_NODE = 275.1024
ARG_OF_PERICENTER = 191.2690
MEAN_ANOMALY   = 168.7875

EPHEMERIS_TYPE = 0
CLASSIFICATION_TYPE = U
NORAD_CAT_ID   = 3597
ELEMENT_SET_NO = 999
REV_AT_EPOCH   = 1884
BSTAR          = .11285529E-3
MEAN_MOTION_DOT = .4E-5
MEAN_MOTION_DDOT = 0

CCSDS_OMM_VERS = 2.0
CREATION_DATE  = 
ORIGINATOR     = 

OBJECT_NAME    = ISIS 1
OBJECT_ID      = 1969-009A
CENTER_NAME    = EARTH
REF_FRAME      = TEME
TIME_SYSTEM    = UTC
MEAN_ELEMENT_THEORY = SGP/SGP4

EPOCH          = 2026-03-08T07:17:29.991840
MEAN_MOTION    = 11.30413826
ECCENTRICITY   = .1707797
INCLINATION    = 88.4544
RA_OF_ASC_NODE = 155.4598
ARG_OF_PERICENTER = 91.9571
MEAN_ANOMALY   = 287.6959

EPHEMERIS_TYPE = 0
CLASSIFICATION_TYPE = U
NORAD_CAT_ID   = 3669
ELEMENT_SET_NO = 999
REV_AT_EPOCH   = 34837
BSTAR          = .13993E-3
MEAN_MOTION_DOT = .22E-5
MEAN_MOTION_DDOT = 0

CCSDS_OMM_VERS = 2.0
CREATION_DATE  = 
ORIGINATOR     = 

OBJECT_NAME    = SERT 2
OBJECT_ID      = 1970-009A
CENTER_NAME    = EARTH
REF_FRAME      = TEME
TIME_SYSTEM    = UTC
MEAN_ELEMENT_THEORY = SGP/SGP4

EPOCH          = 2026-03-08T10:57:10.342944
MEAN_MOTION    = 13.58729688
ECCENTRICITY   = .0005003
INCLINATION    = 99.2757
RA_OF_ASC_NODE = 10.6174
ARG_OF_PERICENTER = 158.5903
MEAN_ANOMALY   = 309.8567

EPHEMERIS_TYPE = 0
CLASSIFICATION_TYPE = U
NORAD_CAT_ID   = 4327
ELEMENT_SET_NO = 999
REV_AT_EPOCH   = 77972
BSTAR          = .83049E-4
MEAN_MOTION_DOT = .19E-6
MEAN_MOTION_DDOT = 0

CCSDS_OMM_VERS = 2.0
CREATION_DATE  = 
ORIGINATOR     = 

OBJECT_NAME    = SL-3 R/B
OBJECT_ID      = 1971-028B
CENTER_NAME    = EARTH
REF_FRAME      = TEME
TIME_SYSTEM    = UTC
MEAN_ELEMENT_THEORY = SGP/SGP4

EPOCH          = 2026-03-08T12:03:35.588736
MEAN_MOTION    = 15.61012652
ECCENTRICITY   = .0013462
INCLINATION    = 81.2356
RA_OF_ASC_NODE = 53.4952
ARG_OF_PERICENTER = 290.3605
MEAN_ANOMALY   = 69.6202

EPHEMERIS_TYPE = 0
CLASSIFICATION_TYPE = U
NORAD_CAT_ID   = 5118
ELEMENT_SET_NO = 999
REV_AT_EPOCH   = 98848
BSTAR          = .59597E-3
MEAN_MOTION_DOT = .50493E-3
MEAN_MOTION_DDOT = 0

CCSDS_OMM_VERS = 2.0
CREATION_DATE  = 
ORIGINATOR     = 

OBJECT_NAME    = ASTEX 1
OBJECT_ID      = 1971-089A
CENTER_NAME    = EARTH
REF_FRAME      = TEME
TIME_SYSTEM    = UTC
MEAN_ELEMENT_THEORY = SGP/SGP4

EPOCH          = 2026-03-08T05:39:41.855904
MEAN_MOTION    = 14.50768453
ECCENTRICITY   = .0017859
INCLINATION    = 92.7123
RA_OF_ASC_NODE = 151.2897
ARG_OF_PERICENTER = 90.1769
MEAN_ANOMALY   = 270.1483

EPHEMERIS_TYPE = 0
CLASSIFICATION_TYPE = U
NORAD_CAT_ID   = 5560
ELEMENT_SET_NO = 999
REV_AT_EPOCH   = 86209
BSTAR          = .17474E-3
MEAN_MOTION_DOT = .688E-5
MEAN_MOTION_DDOT = 0

CCSDS_OMM_VERS = 2.0
CREATION_DATE  = 
ORIGINATOR     = 

OBJECT_NAME    = SL-8 R/B
OBJECT_ID      = 1971-119B
CENTER_NAME    = EARTH
REF_FRAME      = TEME
TIME_SYSTEM    = UTC
MEAN_ELEMENT_THEORY = SGP/SGP4

EPOCH          = 2026-03-08T11:23:25.651680
MEAN_MOTION    = 14.37824422
ECCENTRICITY   = .0549013
INCLINATION    = 73.8875
RA_OF_ASC_NODE = 177.9897
ARG_OF_PERICENTER = 144.8830
MEAN_ANOMALY   = 218.9851

EPHEMERIS_TYPE = 0
CLASSIFICATION_TYPE = U
NORAD_CAT_ID   = 5730
ELEMENT_SET_NO = 999
REV_AT_EPOCH   = 65531
BSTAR          = .85085E-3
MEAN_MOTION_DOT = .16373E-3
MEAN_MOTION_DDOT = 0

CCSDS_OMM_VERS = 2.0
CREATION_DATE  = 
ORIGINATOR     = 

OBJECT_NAME    = OAO 3 (COPERNICUS)
OBJECT_ID      = 1972-065A
CENTER_NAME    = EARTH
REF_FRAME      = TEME
TIME_SYSTEM    = UTC
MEAN_ELEMENT_THEORY = SGP/SGP4

EPOCH          = 2026-03-08T01:04:50.407104
MEAN_MOTION    = 14.59996877
ECCENTRICITY   = .0006282
INCLINATION    = 35.0061
RA_OF_ASC_NODE = 306.6868
ARG_OF_PERICENTER = 153.2580
MEAN_ANOMALY   = 6.0269

EPHEMERIS_TYPE = 0
CLASSIFICATION_TYPE = U
NORAD_CAT_ID   = 6153
ELEMENT_SET_NO = 999
REV_AT_EPOCH   = 84595
BSTAR          = .11419E-3
MEAN_MOTION_DOT = .535E-5
MEAN_MOTION_DDOT = 0

