ATLAS CENTAUR 2         
1 00694U 63047A   26067.41629641  .00002054  00000+0  24161-3 0  9990
2 00694  30.3512 202.7588 0547733  69.0639 296.7688 14.12063774131443
THOR AGENA D R/B        
1 00733U 64002A   26067.47555935  .00000309  00000+0  12745-3 0  9992
2 00733  99.1227  80.7469 0031938 261.7569  97.9992 14.34019404238120
SL-3 R/B                
1 00877U 64053B   26067.18635256  .00000469  00000+0  11484-3 0  9996
2 00877  65.0789 335.6445 0079715 292.7003  66.5683 14.61367221266574
SL-8 R/B                
1 02802U 67045B   26067.26018917  .00000621  00000+0  17906-3 0  9993
2 02802  74.0140 350.7585 0064148 357.3686   2.7124 14.45621699 88812
SL-8 R/B                
1 03230U 68040B   26067.37866428  .00005075  00000+0  37520-3 0  9997
2 03230  74.0324 316.3734 0023866 140.7608 219.5317 15.03250431 89816
OAO 2                   
1 03597U 68110A   26066.92041369  .00000400  00000+0  11286-3 0  9998
2 03597  34.9929 275.1024 0005663 191.2690 168.7875 14.47307064 18840
ISIS 1                  
1 03669U 69009A   26067.30381935  .00000220  00000+0  13993-3 0  9992
2 03669  88.4544 155.4598 1707797  91.9571 287.6959 11.30413826348376
SERT 2                  
1 04327U 70009A   26067.45636971  .00000019  00000+0  83049-4 0  9991
2 04327  99.2757  10.6174 0005003 158.5903 309.8567 13.58729688779722
SL-3 R/B                
1 05118U 71028B   26067.50249524  .00050493  00000+0  59597-3 0  9993
2 05118  81.2356  53.4952 0013462 290.3605  69.6202 15.61012652988482
ASTEX 1                 
1 05560U 71089A   26067.23590111  .00000688  00000+0  17474-3 0  9991
2 05560  92.7123 151.2897 0017859  90.1769 270.1483 14.50768453862090
SL-8 R/B                
1 05730U 71119B   26067.47460245  .00016373  00000+0  85085-3 0  9995
2 05730  73.8875 177.9897 0549013 144.8830 218.9851 14.37824422655314
OAO 3 (COPERNICUS)      
1 06153U 72065A   26067.04502786  .00000535  00000+0  11419-3 0  9999
2 06153  35.0061 306.6868 0006282 153.2580   6.0269 14.59996877845950
